NORAD_CAT_ID,OBJECT_NAME,OBJECT_TYPE,EPOCH,MEAN_MOTION,ECCENTRICITY,INCLINATION,RA_OF_ASC_NODE,ARG_OF_PERICENTER,MEAN_ANOMALY,BSTAR,MEAN_MOTION_DOT,MEAN_MOTION_DDOT,TLE_LINE0,TLE_LINE1,TLE_LINE2,SEMIMAJOR_AXIS,PERIOD,APOGEE,PERIGEE,DECAYED
56770.0,STARLINK-6342,PAYLOAD,2023-09-14 17:40:56,14.98320702,0.000292,70.0005,131.2408,262.3225,97.7603,5.6832e-06,-2.5e-07,0.0,0 STARLINK-6342,1 56770U 23078D   23257.73676860 -.00000025  00000-0  56832-5 0  9994,2 56770  70.0005 131.2408 0002920 262.3225  97.7603 14.98320702 16592,6950.222,96.108,574.116,570.057,0.0
56770.0,STARLINK-6342,PAYLOAD,2023-09-14 20:53:13,14.98320828,0.000316,70.0009,130.9042,260.4446,99.6356,-6.8872e-06,-1.75e-06,0.0,0 STARLINK-6342,1 56770U 23078D   23257.87028937 -.00000175  00000-0 -68872-5 0  9999,2 56770  70.0009 130.9042 0003160 260.4446  99.6356 14.98320828 16356,6950.221,96.108,574.283,569.89,0.0
56770.0,STARLINK-6342,PAYLOAD,2023-09-15 01:41:36,14.98343968,0.0003278,70.0001,130.397,267.3955,92.6828,-0.00040458,-4.919e-05,0.0,0 STARLINK-6342,1 56770U 23078D   23258.07056612 -.00004919  00000-0 -40458-3 0  9991,2 56770  70.0001 130.3970 0003278 267.3955  92.6828 14.98343968 16642,6950.15,96.106,574.293,569.736,0.0
56770.0,STARLINK-6342,PAYLOAD,2023-09-16 01:43:37,14.98336721,0.0003268,69.9997,127.8713,271.4322,88.6462,7.6731e-05,8.23e-06,0.0,0 STARLINK-6342,1 56770U 23078D   23259.07195836  .00000823  00000-0  76731-4 0  9996,2 56770  69.9997 127.8713 0003268 271.4322  88.6462 14.98336721 16796,6950.172,96.107,574.308,569.766,0.0
56770.0,STARLINK-6342,PAYLOAD,2023-09-16 17:44:58,14.98324838,0.0003452,69.9996,126.1884,276.2548,83.8218,9.2935e-05,1.016e-05,0.0,0 STARLINK-6342,1 56770U 23078D   23259.73956519  .00001016  00000-0  92935-4 0  9991,2 56770  69.9996 126.1884 0003452 276.2548  83.8218 14.98324838 16897,6950.209,96.107,574.473,569.675,0.0
56770.0,STARLINK-6342,PAYLOAD,2023-09-17 01:45:38,14.98326596,0.0003324,69.9999,125.3467,276.4911,83.587,0.00010407,1.149e-05,0.0,0 STARLINK-6342,1 56770U 23078D   23260.07336460  .00001149  00000-0  10407-3 0  9997,2 56770  69.9999 125.3467 0003324 276.4911  83.5870 14.98326596 16683,6950.203,96.107,574.379,569.758,0.0
56770.0,STARLINK-6342,PAYLOAD,2023-09-17 17:46:59,14.98330805,0.0003232,69.9997,123.6636,272.5932,87.4857,-7.4214e-06,-1.82e-06,0.0,0 STARLINK-6342,1 56770U 23078D   23260.74096422 -.00000182  00000-0 -74214-5 0  9998,2 56770  69.9997 123.6636 0003232 272.5932  87.4857 14.98330805 17045,6950.19,96.107,574.302,569.809,0.0
56770.0,STARLINK-6342,PAYLOAD,2023-09-18 00:11:31,14.98332174,0.000315,69.9998,122.99,272.8788,87.201,1.7752e-05,1.19e-06,0.0,0 STARLINK-6342,1 56770U 23078D   23261.00800247  .00000119  00000-0  17752-4 0  9997,2 56770  69.9998 122.9900 0003150 272.8788  87.2010 14.98332174 16828,6950.186,96.107,574.24,569.862,0.0
56770.0,STARLINK-6342,PAYLOAD,2023-09-18 17:49:00,14.98327317,0.0003069,69.9998,121.1388,268.9961,91.0846,-2.7409e-05,-4.2e-06,0.0,0 STARLINK-6342,1 56770U 23078D   23261.74236588 -.00000420  00000-0 -27409-4 0  9996,2 56770  69.9998 121.1388 0003069 268.9961  91.0846 14.98327317 17191,6950.201,96.107,574.199,569.933,0.0
56770.0,STARLINK-6342,PAYLOAD,2023-09-18 21:01:16,14.98329202,0.0002989,69.9996,120.8021,266.4997,93.582,-1.7283e-05,-2.99e-06,0.0,0 STARLINK-6342,1 56770U 23078D   23261.87588463 -.00000299  00000-0 -17283-4 0  9995,2 56770  69.9996 120.8021 0002989 266.4997  93.5820 14.98329202 16958,6950.195,96.107,574.138,569.983,0.0
56770.0,STARLINK-6342,PAYLOAD,2023-09-19 17:51:00,14.98327297,0.0002968,69.9996,118.6137,266.5117,93.5702,0.00016678,1.897e-05,0.0,0 STARLINK-6342,1 56770U 23078D   23262.74375822  .00001897  00000-0  16678-3 0  9994,2 56770  69.9996 118.6137 0002968 266.5117  93.5702 14.98327297 17348,6950.201,96.107,574.129,570.003,0.0
56770.0,STARLINK-6342,PAYLOAD,2023-09-20 00:15:32,14.98336244,0.0002883,69.9998,117.9407,263.5602,96.5229,9.0048e-05,9.82e-06,0.0,0 STARLINK-6342,1 56770U 23078D   23263.01079442  .00000982  00000-0  90048-4 0  9992,2 56770  69.9998 117.9407 0002883 263.5602  96.5229 14.98336244 17387,6950.174,96.107,574.042,570.035,0.0
56770.0,STARLINK-6342,PAYLOAD,2023-09-20 17:53:02,14.98315296,0.0003105,69.9997,116.0886,272.9256,87.1548,-0.00010115,-1.299e-05,0.0,0 STARLINK-6342,1 56770U 23078D   23263.74517297 -.00001299  00000-0 -10115-3 0  9997,2 56770  69.9997 116.0886 0003105 272.9256  87.1548 14.98315296 17490,6950.238,96.108,574.261,569.945,0.0
56770.0,STARLINK-6342,PAYLOAD,2023-09-20 21:05:19,14.98315651,0.0002905,69.9992,115.7513,268.311,91.7716,-0.00010085,-1.296e-05,0.0,0 STARLINK-6342,1 56770U 23078D   23263.87869365 -.00001296  00000-0 -10085-3 0  9990,2 56770  69.9992 115.7513 0002905 268.3110  91.7716 14.98315651 17250,6950.237,96.108,574.121,570.083,0.0
56770.0,STARLINK-6342,PAYLOAD,2023-09-21 13:06:39,14.98325648,0.0003136,69.999,114.0682,271.8764,88.2036,-0.00010086,-1.296e-05,0.0,0 STARLINK-6342,1 56770U 23078D   23264.54628998 -.00001296  00000-0 -10086-3 0  9991,2 56770  69.9990 114.0682 0003136 271.8764  88.2036 14.98325648 17352,6950.206,96.107,574.251,569.892,0.0
56770.0,STARLINK-6342,PAYLOAD,2023-09-21 16:18:55,14.98327705,0.0003173,69.9991,113.733,270.6645,89.4151,-9.071e-05,-1.175e-05,0.0,0 STARLINK-6342,1 56770U 23078D   23264.67980864 -.00001175  00000-0 -90710-4 0  9997,2 56770  69.9991 113.7330 0003173 270.6645  89.4151 14.98327705 17633,6950.2,96.107,574.27,569.86,0.0
56770.0,STARLINK-6342,PAYLOAD,2023-09-21 21:07:19,14.98329652,0.0003124,69.9992,113.2274,271.7689,88.3112,-5.1532e-05,-7.08e-06,0.0,0 STARLINK-6342,1 56770U 23078D   23264.88008688 -.00000708  00000-0 -51532-4 0  9995,2 56770  69.9992 113.2274 0003124 271.7689  88.3112 14.98329652 17405,6950.194,96.107,574.23,569.888,0.0
56770.0,STARLINK-6342,PAYLOAD,2023-09-22 00:19:35,14.9833043,0.0003039,69.9992,112.8905,271.5146,88.5665,-3.5419e-05,-5.16e-06,0.0,0 STARLINK-6342,1 56770U 23078D   23265.01360584 -.00000516  00000-0 -35419-4 0  9990,2 56770  69.9992 112.8905 0003039 271.5146  88.5665 14.98330430 17425,6950.192,96.107,574.169,569.944,0.0
56770.0,STARLINK-6342,PAYLOAD,2023-09-22 17:57:03,14.98328391,0.0003252,69.9989,111.0385,275.4862,84.5926,0.00015956,1.811e-05,0.0,0 STARLINK-6342,1 56770U 23078D   23265.74796177  .00001811  00000-0  15956-3 0  9991,2 56770  69.9989 111.0385 0003252 275.4862  84.5926 14.98328391 17798,6950.198,96.107,574.323,569.803,0.0
56770.0,STARLINK-6342,PAYLOAD,2023-09-22 21:09:19,14.98330983,0.0003216,69.999,110.7019,275.3441,84.7351,0.00018311,2.093e-05,0.0,0 STARLINK-6342,1 56770U 23078D   23265.88147952  .00002093  00000-0  18311-3 0  9998,2 56770  69.9990 110.7019 0003216 275.3441  84.7351 14.98330983 17550,6950.19,96.107,574.29,569.82,0.0
56770.0,STARLINK-6342,PAYLOAD,2023-09-23 00:21:35,14.98333285,0.0003201,69.999,110.3653,274.6312,85.4482,0.00020056,2.301e-05,0.0,0 STARLINK-6342,1 56770U 23078D   23266.01499735  .00002301  00000-0  20056-3 0  9994,2 56770  69.9990 110.3653 0003201 274.6312  85.4482 14.98333285 17576,6950.183,96.107,574.272,569.823,0.0
56770.0,STARLINK-6342,PAYLOAD,2023-09-23 17:59:05,14.98329337,0.0003141,69.9992,108.5142,271.9967,88.0832,8.0384e-06,3e-08,0.0,0 STARLINK-6342,1 56770U 23078D   23266.74936448  .00000003  00000-0  80384-5 0  9990,2 56770  69.9992 108.5142 0003141 271.9967  88.0832 14.98329337 17941,6950.195,96.107,574.243,569.877,0.0
56770.0,STARLINK-6342,PAYLOAD,2023-09-24 00:23:37,14.98331657,0.0003125,69.9992,107.841,271.1368,88.9433,3.0886e-05,2.76e-06,0.0,0 STARLINK-6342,1 56770U 23078D   23267.01640202  .00000276  00000-0  30886-4 0  9994,2 56770  69.9992 107.8410 0003125 271.1368  88.9433 14.98331657 17720,6950.188,96.107,574.225,569.881,0.0
56770.0,STARLINK-6342,PAYLOAD,2023-09-24 18:01:05,14.98333691,0.0002967,69.9996,105.9894,265.0829,94.9992,-6.0951e-05,-8.2e-06,0.0,0 STARLINK-6342,1 56770U 23078D   23267.75076134 -.00000820  00000-0 -60951-4 0  9995,2 56770  69.9996 105.9894 0002967 265.0829  94.9992 14.98333691 18094,6950.181,96.107,574.109,569.984,0.0
56770.0,STARLINK-6342,PAYLOAD,2023-09-24 21:13:21,14.98333374,0.0002975,69.9996,105.6528,264.8932,95.1888,-6.2478e-05,-8.38e-06,0.0,0 STARLINK-6342,1 56770U 23078D   23267.88428124 -.00000838  00000-0 -62478-4 0  9994,2 56770  69.9996 105.6528 0002975 264.8932  95.1888 14.98333374 17854,6950.182,96.107,574.115,569.98,0.0
56770.0,STARLINK-6342,PAYLOAD,2023-09-25 13:14:42,14.98329892,0.0003143,69.9992,103.9683,270.7851,89.2947,7.3652e-06,-5e-08,0.0,0 STARLINK-6342,1 56770U 23078D   23268.55188022 -.00000005  00000-0  73652-5 0  9991,2 56770  69.9992 103.9683 0003143 270.7851  89.2947 14.98329892 17958,6950.193,96.107,574.243,569.874,0.0
56770.0,STARLINK-6342,PAYLOAD,2023-09-25 19:39:14,14.98330767,0.0003132,69.9992,103.2953,271.4635,88.6165,1.9887e-05,1.44e-06,0.0,0 STARLINK-6342,1 56770U 23078D   23268.81891931  .00000144  00000-0  19887-4 0  9992,2 56770  69.9992 103.2953 0003132 271.4635  88.6165 14.98330767 18259,6950.191,96.107,574.232,569.879,0.0
56770.0,STARLINK-6342,PAYLOAD,2023-09-25 21:15:22,14.98331376,0.0003115,69.9992,103.1269,271.6227,88.4575,2.8593e-05,2.48e-06,0.0,0 STARLINK-6342,1 56770U 23078D   23268.88567864  .00000248  00000-0  28593-4 0  9993,2 56770  69.9992 103.1269 0003115 271.6227  88.4575 14.98331376 18001,6950.189,96.107,574.219,569.889,0.0
56770.0,STARLINK-6342,PAYLOAD,2023-09-26 14:52:51,14.98325084,0.0003053,69.9993,101.2752,271.6868,88.3942,-2.1392e-05,-3.48e-06,0.0,0 STARLINK-6342,1 56770U 23078D   23269.62004414 -.00000348  00000-0 -21392-4 0  9996,2 56770  69.9993 101.2752 0003053 271.6868  88.3942 14.98325084 18118,6950.208,96.107,574.195,569.951,0.0
56770.0,STARLINK-6342,PAYLOAD,2023-09-26 21:17:24,14.98326529,0.0003022,69.9991,100.6018,271.6517,88.4296,-6.7769e-06,-1.74e-06,0.0,0 STARLINK-6342,1 56770U 23078D   23269.88708343 -.00000174  00000-0 -67769-5 0  9992,2 56770  69.9991 100.6018 0003022 271.6517  88.4296 14.98326529 18153,6950.204,96.107,574.169,569.968,0.0
